{
  "type": "FeatureCollection",
  "features": [
    {
      "type": "Feature",
      "properties": {
        "id": "hex-eu-0-0",
        "sat_id": "EU-1A",
        "machine_no": "Iberian Zone",
        "color": "#8b5cf6",
        "spot_beam": "Iberian Zone Beam 1",
        "arfcn": "500"
      },
      "geometry": {
        "type": "Polygon",
        "coordinates": [
          [
            [
              -8.8856,
              36
            ],
            [
              -11,
              37
            ],
            [
              -13.1144,
              36
            ],
            [
              -13.1144,
              34
            ],
            [
              -11,
              33
            ],
            [
              -8.8856,
              34
            ],
            [
              -8.8856,
              36
            ]
          ]
        ]
      }
    },
    {
      "type": "Feature",
      "properties": {
        "id": "hex-eu-0-1",
        "sat_id": "EU-1B",
        "machine_no": "Iberian Zone",
        "color": "#8b5cf6",
        "spot_beam": "Iberian Zone Beam 2",
        "arfcn": "507"
      },
      "geometry": {
        "type": "Polygon",
        "coordinates": [
          [
            [
              -4.6567,
              36
            ],
            [
              -6.7711,
              37
            ],
            [
              -8.8856,
              36
            ],
            [
              -8.8856,
              34
            ],
            [
              -6.7711,
              33
            ],
            [
              -4.6567,
              34
            ],
            [
              -4.6567,
              36
            ]
          ]
        ]
      }
    },
    {
      "type": "Feature",
      "properties": {
        "id": "hex-eu-0-2",
        "sat_id": "EU-1C",
        "machine_no": "Iberian Zone",
        "color": "#8b5cf6",
        "spot_beam": "Iberian Zone Beam 3",
        "arfcn": "514"
      },
      "geometry": {
        "type": "Polygon",
        "coordinates": [
          [
            [
              -0.4278,
              36
            ],
            [
              -2.5422,
              37
            ],
            [
              -4.6567,
              36
            ],
            [
              -4.6567,
              34
            ],
            [
              -2.5422,
              33
            ],
            [
              -0.4278,
              34
            ],
            [
              -0.4278,
              36
            ]
          ]
        ]
      }
    },
    {
      "type": "Feature",
      "properties": {
        "id": "hex-eu-0-3",
        "sat_id": "EU-1D",
        "machine_no": "Iberian Zone",
        "color": "#8b5cf6",
        "spot_beam": "Iberian Zone Beam 4",
        "arfcn": "521"
      },
      "geometry": {
        "type": "Polygon",
        "coordinates": [
          [
            [
              3.8011,
              36
            ],
            [
              1.6867,
              37
            ],
            [
              -0.4278,
              36
            ],
            [
              -0.4278,
              34
            ],
            [
              1.6867,
              33
            ],
            [
              3.8011,
              34
            ],
            [
              3.8011,
              36
            ]
          ]
        ]
      }
    },
    {
      "type": "Feature",
      "properties": {
        "id": "hex-eu-0-4",
        "sat_id": "EU-1E",
        "machine_no": "Mediterranean",
        "color": "#ef4444",
        "spot_beam": "Mediterranean Beam 1",
        "arfcn": "528"
      },
      "geometry": {
        "type": "Polygon",
        "coordinates": [
          [
            [
              8.03,
              36
            ],
            [
              5.9155,
              37
            ],
            [
              3.8011,
              36
            ],
            [
              3.8011,
              34
            ],
            [
              5.9155,
              33
            ],
            [
              8.03,
              34
            ],
            [
              8.03,
              36
            ]
          ]
        ]
      }
    },
    {
      "type": "Feature",
      "properties": {
        "id": "hex-eu-0-5",
        "sat_id": "EU-1F",
        "machine_no": "Mediterranean",
        "color": "#ef4444",
        "spot_beam": "Mediterranean Beam 2",
        "arfcn": "535"
      },
      "geometry": {
        "type": "Polygon",
        "coordinates": [
          [
            [
              12.2589,
              36
            ],
            [
              10.1444,
              37
            ],
            [
              8.03,
              36
            ],
            [
              8.03,
              34
            ],
            [
              10.1444,
              33
            ],
            [
              12.2589,
              34
            ],
            [
              12.2589,
              36
            ]
          ]
        ]
      }
    },
    {
      "type": "Feature",
      "properties": {
        "id": "hex-eu-0-6",
        "sat_id": "EU-1G",
        "machine_no": "Mediterranean",
        "color": "#ef4444",
        "spot_beam": "Mediterranean Beam 3",
        "arfcn": "542"
      },
      "geometry": {
        "type": "Polygon",
        "coordinates": [
          [
            [
              16.4878,
              36
            ],
            [
              14.3733,
              37
            ],
            [
              12.2589,
              36
            ],
            [
              12.2589,
              34
            ],
            [
              14.3733,
              33
            ],
            [
              16.4878,
              34
            ],
            [
              16.4878,
              36
            ]
          ]
        ]
      }
    },
    {
      "type": "Feature",
      "properties": {
        "id": "hex-eu-0-7",
        "sat_id": "EU-1H",
        "machine_no": "Mediterranean",
        "color": "#ef4444",
        "spot_beam": "Mediterranean Beam 4",
        "arfcn": "549"
      },
      "geometry": {
        "type": "Polygon",
        "coordinates": [
          [
            [
              20.7167,
              36
            ],
            [
              18.6022,
              37
            ],
            [
              16.4878,
              36
            ],
            [
              16.4878,
              34
            ],
            [
              18.6022,
              33
            ],
            [
              20.7167,
              34
            ],
            [
              20.7167,
              36
            ]
          ]
        ]
      }
    },
    {
      "type": "Feature",
      "properties": {
        "id": "hex-eu-0-8",
        "sat_id": "EU-1I",
        "machine_no": "Mediterranean",
        "color": "#ef4444",
        "spot_beam": "Mediterranean Beam 1",
        "arfcn": "556"
      },
      "geometry": {
        "type": "Polygon",
        "coordinates": [
          [
            [
              24.9455,
              36
            ],
            [
              22.8311,
              37
            ],
            [
              20.7167,
              36
            ],
            [
              20.7167,
              34
            ],
            [
              22.8311,
              33
            ],
            [
              24.9455,
              34
            ],
            [
              24.9455,
              36
            ]
          ]
        ]
      }
    },
    {
      "type": "Feature",
      "properties": {
        "id": "hex-eu-0-9",
        "sat_id": "EU-1J",
        "machine_no": "Mediterranean",
        "color": "#ef4444",
        "spot_beam": "Mediterranean Beam 2",
        "arfcn": "563"
      },
      "geometry": {
        "type": "Polygon",
        "coordinates": [
          [
            [
              29.1744,
              36
            ],
            [
              27.06,
              37
            ],
            [
              24.9455,
              36
            ],
            [
              24.9455,
              34
            ],
            [
              27.06,
              33
            ],
            [
              29.1744,
              34
            ],
            [
              29.1744,
              36
            ]
          ]
        ]
      }
    },
    {
      "type": "Feature",
      "properties": {
        "id": "hex-eu-0-10",
        "sat_id": "EU-1K",
        "machine_no": "Mediterranean",
        "color": "#ef4444",
        "spot_beam": "Mediterranean Beam 3",
        "arfcn": "570"
      },
      "geometry": {
        "type": "Polygon",
        "coordinates": [
          [
            [
              33.4033,
              36
            ],
            [
              31.2889,
              37
            ],
            [
              29.1744,
              36
            ],
            [
              29.1744,
              34
            ],
            [
              31.2889,
              33
            ],
            [
              33.4033,
              34
            ],
            [
              33.4033,
              36
            ]
          ]
        ]
      }
    },
    {
      "type": "Feature",
      "properties": {
        "id": "hex-eu-1-0",
        "sat_id": "EU-2A",
        "machine_no": "Iberian Zone",
        "color": "#8b5cf6",
        "spot_beam": "Iberian Zone Beam 1",
        "arfcn": "511"
      },
      "geometry": {
        "type": "Polygon",
        "coordinates": [
          [
            [
              -6.604,
              39
            ],
            [
              -8.802,
              40
            ],
            [
              -11,
              39
            ],
            [
              -11,
              37
            ],
            [
              -8.802,
              36
            ],
            [
              -6.604,
              37
            ],
            [
              -6.604,
              39
            ]
          ]
        ]
      }
    },
    {
      "type": "Feature",
      "properties": {
        "id": "hex-eu-1-1",
        "sat_id": "EU-2B",
        "machine_no": "Iberian Zone",
        "color": "#8b5cf6",
        "spot_beam": "Iberian Zone Beam 2",
        "arfcn": "518"
      },
      "geometry": {
        "type": "Polygon",
        "coordinates": [
          [
            [
              -2.208,
              39
            ],
            [
              -4.406,
              40
            ],
            [
              -6.604,
              39
            ],
            [
              -6.604,
              37
            ],
            [
              -4.406,
              36
            ],
            [
              -2.208,
              37
            ],
            [
              -2.208,
              39
            ]
          ]
        ]
      }
    },
    {
      "type": "Feature",
      "properties": {
        "id": "hex-eu-1-2",
        "sat_id": "EU-2C",
        "machine_no": "Iberian Zone",
        "color": "#8b5cf6",
        "spot_beam": "Iberian Zone Beam 3",
        "arfcn": "525"
      },
      "geometry": {
        "type": "Polygon",
        "coordinates": [
          [
            [
              2.188,
              39
            ],
            [
              -0.01,
              40
            ],
            [
              -2.208,
              39
            ],
            [
              -2.208,
              37
            ],
            [
              -0.01,
              36
            ],
            [
              2.188,
              37
            ],
            [
              2.188,
              39
            ]
          ]
        ]
      }
    },
    {
      "type": "Feature",
      "properties": {
        "id": "hex-eu-1-3",
        "sat_id": "EU-2D",
        "machine_no": "Iberian Zone",
        "color": "#8b5cf6",
        "spot_beam": "Iberian Zone Beam 4",
        "arfcn": "532"
      },
      "geometry": {
        "type": "Polygon",
        "coordinates": [
          [
            [
              6.584,
              39
            ],
            [
              4.386,
              40
            ],
            [
              2.188,
              39
            ],
            [
              2.188,
              37
            ],
            [
              4.386,
              36
            ],
            [
              6.584,
              37
            ],
            [
              6.584,
              39
            ]
          ]
        ]
      }
    },
    {
      "type": "Feature",
      "properties": {
        "id": "hex-eu-1-4",
        "sat_id": "EU-2E",
        "machine_no": "Mediterranean",
        "color": "#ef4444",
        "spot_beam": "Mediterranean Beam 1",
        "arfcn": "539"
      },
      "geometry": {
        "type": "Polygon",
        "coordinates": [
          [
            [
              10.98,
              39
            ],
            [
              8.782,
              40
            ],
            [
              6.584,
              39
            ],
            [
              6.584,
              37
            ],
            [
              8.782,
              36
            ],
            [
              10.98,
              37
            ],
            [
              10.98,
              39
            ]
          ]
        ]
      }
    },
    {
      "type": "Feature",
      "properties": {
        "id": "hex-eu-1-5",
        "sat_id": "EU-2F",
        "machine_no": "Mediterranean",
        "color": "#ef4444",
        "spot_beam": "Mediterranean Beam 2",
        "arfcn": "546"
      },
      "geometry": {
        "type": "Polygon",
        "coordinates": [
          [
            [
              15.376,
              39
            ],
            [
              13.178,
              40
            ],
            [
              10.98,
              39
            ],
            [
              10.98,
              37
            ],
            [
              13.178,
              36
            ],
            [
              15.376,
              37
            ],
            [
              15.376,
              39
            ]
          ]
        ]
      }
    },
    {
      "type": "Feature",
      "properties": {
        "id": "hex-eu-1-6",
        "sat_id": "EU-2G",
        "machine_no": "Mediterranean",
        "color": "#ef4444",
        "spot_beam": "Mediterranean Beam 3",
        "arfcn": "553"
      },
      "geometry": {
        "type": "Polygon",
        "coordinates": [
          [
            [
              19.7721,
              39
            ],
            [
              17.5741,
              40
            ],
            [
              15.376,
              39
            ],
            [
              15.376,
              37
            ],
            [
              17.5741,
              36
            ],
            [
              19.7721,
              37
            ],
            [
              19.7721,
              39
            ]
          ]
        ]
      }
    },
    {
      "type": "Feature",
      "properties": {
        "id": "hex-eu-1-7",
        "sat_id": "EU-2H",
        "machine_no": "Mediterranean",
        "color": "#ef4444",
        "spot_beam": "Mediterranean Beam 4",
        "arfcn": "560"
      },
      "geometry": {
        "type": "Polygon",
        "coordinates": [
          [
            [
              24.1681,
              39
            ],
            [
              21.9701,
              40
            ],
            [
              19.7721,
              39
            ],
            [
              19.7721,
              37
            ],
            [
              21.9701,
              36
            ],
            [
              24.1681,
              37
            ],
            [
              24.1681,
              39
            ]
          ]
        ]
      }
    },
    {
      "type": "Feature",
      "properties": {
        "id": "hex-eu-1-8",
        "sat_id": "EU-2I",
        "machine_no": "Mediterranean",
        "color": "#ef4444",
        "spot_beam": "Mediterranean Beam 1",
        "arfcn": "567"
      },
      "geometry": {
        "type": "Polygon",
        "coordinates": [
          [
            [
              28.5641,
              39
            ],
            [
              26.3661,
              40
            ],
            [
              24.1681,
              39
            ],
            [
              24.1681,
              37
            ],
            [
              26.3661,
              36
            ],
            [
              28.5641,
              37
            ],
            [
              28.5641,
              39
            ]
          ]
        ]
      }
    },
    {
      "type": "Feature",
      "properties": {
        "id": "hex-eu-1-9",
        "sat_id": "EU-2J",
        "machine_no": "Mediterranean",
        "color": "#ef4444",
        "spot_beam": "Mediterranean Beam 2",
        "arfcn": "574"
      },
      "geometry": {
        "type": "Polygon",
        "coordinates": [
          [
            [
              32.9601,
              39
            ],
            [
              30.7621,
              40
            ],
            [
              28.5641,
              39
            ],
            [
              28.5641,
              37
            ],
            [
              30.7621,
              36
            ],
            [
              32.9601,
              37
            ],
            [
              32.9601,
              39
            ]
          ]
        ]
      }
    },
    {
      "type": "Feature",
      "properties": {
        "id": "hex-eu-2-0",
        "sat_id": "EU-3A",
        "machine_no": "Iberian Zone",
        "color": "#8b5cf6",
        "spot_beam": "Iberian Zone Beam 1",
        "arfcn": "522"
      },
      "geometry": {
        "type": "Polygon",
        "coordinates": [
          [
            [
              -8.705,
              42
            ],
            [
              -11,
              43
            ],
            [
              -13.295,
              42
            ],
            [
              -13.295,
              40
            ],
            [
              -11,
              39
            ],
            [
              -8.705,
              40
            ],
            [
              -8.705,
              42
            ]
          ]
        ]
      }
    },
    {
      "type": "Feature",
      "properties": {
        "id": "hex-eu-2-1",
        "sat_id": "EU-3B",
        "machine_no": "Iberian Zone",
        "color": "#8b5cf6",
        "spot_beam": "Iberian Zone Beam 2",
        "arfcn": "529"
      },
      "geometry": {
        "type": "Polygon",
        "coordinates": [
          [
            [
              -4.115,
              42
            ],
            [
              -6.41,
              43
            ],
            [
              -8.705,
              42
            ],
            [
              -8.705,
              40
            ],
            [
              -6.41,
              39
            ],
            [
              -4.115,
              40
            ],
            [
              -4.115,
              42
            ]
          ]
        ]
      }
    },
    {
      "type": "Feature",
      "properties": {
        "id": "hex-eu-2-2",
        "sat_id": "EU-3C",
        "machine_no": "Iberian Zone",
        "color": "#8b5cf6",
        "spot_beam": "Iberian Zone Beam 3",
        "arfcn": "536"
      },
      "geometry": {
        "type": "Polygon",
        "coordinates": [
          [
            [
              0.4749,
              42
            ],
            [
              -1.82,
              43
            ],
            [
              -4.115,
              42
            ],
            [
              -4.115,
              40
            ],
            [
              -1.82,
              39
            ],
            [
              0.4749,
              40
            ],
            [
              0.4749,
              42
            ]
          ]
        ]
      }
    },
    {
      "type": "Feature",
      "properties": {
        "id": "hex-eu-2-3",
        "sat_id": "EU-3D",
        "machine_no": "Iberian Zone",
        "color": "#8b5cf6",
        "spot_beam": "Iberian Zone Beam 4",
        "arfcn": "543"
      },
      "geometry": {
        "type": "Polygon",
        "coordinates": [
          [
            [
              5.0649,
              42
            ],
            [
              2.7699,
              43
            ],
            [
              0.4749,
              42
            ],
            [
              0.4749,
              40
            ],
            [
              2.7699,
              39
            ],
            [
              5.0649,
              40
            ],
            [
              5.0649,
              42
            ]
          ]
        ]
      }
    },
    {
      "type": "Feature",
      "properties": {
        "id": "hex-eu-2-4",
        "sat_id": "EU-3E",
        "machine_no": "Mediterranean",
        "color": "#ef4444",
        "spot_beam": "Mediterranean Beam 1",
        "arfcn": "550"
      },
      "geometry": {
        "type": "Polygon",
        "coordinates": [
          [
            [
              9.6549,
              42
            ],
            [
              7.3599,
              43
            ],
            [
              5.0649,
              42
            ],
            [
              5.0649,
              40
            ],
            [
              7.3599,
              39
            ],
            [
              9.6549,
              40
            ],
            [
              9.6549,
              42
            ]
          ]
        ]
      }
    },
    {
      "type": "Feature",
      "properties": {
        "id": "hex-eu-2-5",
        "sat_id": "EU-3F",
        "machine_no": "Mediterranean",
        "color": "#ef4444",
        "spot_beam": "Mediterranean Beam 2",
        "arfcn": "557"
      },
      "geometry": {
        "type": "Polygon",
        "coordinates": [
          [
            [
              14.2449,
              42
            ],
            [
              11.9499,
              43
            ],
            [
              9.6549,
              42
            ],
            [
              9.6549,
              40
            ],
            [
              11.9499,
              39
            ],
            [
              14.2449,
              40
            ],
            [
              14.2449,
              42
            ]
          ]
        ]
      }
    },
    {
      "type": "Feature",
      "properties": {
        "id": "hex-eu-2-6",
        "sat_id": "EU-3G",
        "machine_no": "Mediterranean",
        "color": "#ef4444",
        "spot_beam": "Mediterranean Beam 3",
        "arfcn": "564"
      },
      "geometry": {
        "type": "Polygon",
        "coordinates": [
          [
            [
              18.8349,
              42
            ],
            [
              16.5399,
              43
            ],
            [
              14.2449,
              42
            ],
            [
              14.2449,
              40
            ],
            [
              16.5399,
              39
            ],
            [
              18.8349,
              40
            ],
            [
              18.8349,
              42
            ]
          ]
        ]
      }
    },
    {
      "type": "Feature",
      "properties": {
        "id": "hex-eu-2-7",
        "sat_id": "EU-3H",
        "machine_no": "Mediterranean",
        "color": "#ef4444",
        "spot_beam": "Mediterranean Beam 4",
        "arfcn": "571"
      },
      "geometry": {
        "type": "Polygon",
        "coordinates": [
          [
            [
              23.4248,
              42
            ],
            [
              21.1299,
              43
            ],
            [
              18.8349,
              42
            ],
            [
              18.8349,
              40
            ],
            [
              21.1299,
              39
            ],
            [
              23.4248,
              40
            ],
            [
              23.4248,
              42
            ]
          ]
        ]
      }
    },
    {
      "type": "Feature",
      "properties": {
        "id": "hex-eu-2-8",
        "sat_id": "EU-3I",
        "machine_no": "Mediterranean",
        "color": "#ef4444",
        "spot_beam": "Mediterranean Beam 1",
        "arfcn": "578"
      },
      "geometry": {
        "type": "Polygon",
        "coordinates": [
          [
            [
              28.0148,
              42
            ],
            [
              25.7198,
              43
            ],
            [
              23.4248,
              42
            ],
            [
              23.4248,
              40
            ],
            [
              25.7198,
              39
            ],
            [
              28.0148,
              40
            ],
            [
              28.0148,
              42
            ]
          ]
        ]
      }
    },
    {
      "type": "Feature",
      "properties": {
        "id": "hex-eu-2-9",
        "sat_id": "EU-3J",
        "machine_no": "Mediterranean",
        "color": "#ef4444",
        "spot_beam": "Mediterranean Beam 2",
        "arfcn": "585"
      },
      "geometry": {
        "type": "Polygon",
        "coordinates": [
          [
            [
              32.6048,
              42
            ],
            [
              30.3098,
              43
            ],
            [
              28.0148,
              42
            ],
            [
              28.0148,
              40
            ],
            [
              30.3098,
              39
            ],
            [
              32.6048,
              40
            ],
            [
              32.6048,
              42
            ]
          ]
        ]
      }
    },
    {
      "type": "Feature",
      "properties": {
        "id": "hex-eu-3-0",
        "sat_id": "EU-4A",
        "machine_no": "Western Europe",
        "color": "#3b82f6",
        "spot_beam": "Western Europe Beam 1",
        "arfcn": "533"
      },
      "geometry": {
        "type": "Polygon",
        "coordinates": [
          [
            [
              -6.1843,
              45
            ],
            [
              -8.5922,
              46
            ],
            [
              -11,
              45
            ],
            [
              -11,
              43
            ],
            [
              -8.5922,
              42
            ],
            [
              -6.1843,
              43
            ],
            [
              -6.1843,
              45
            ]
          ]
        ]
      }
    },
    {
      "type": "Feature",
      "properties": {
        "id": "hex-eu-3-1",
        "sat_id": "EU-4B",
        "machine_no": "Western Europe",
        "color": "#3b82f6",
        "spot_beam": "Western Europe Beam 2",
        "arfcn": "540"
      },
      "geometry": {
        "type": "Polygon",
        "coordinates": [
          [
            [
              -1.3687,
              45
            ],
            [
              -3.7765,
              46
            ],
            [
              -6.1843,
              45
            ],
            [
              -6.1843,
              43
            ],
            [
              -3.7765,
              42
            ],
            [
              -1.3687,
              43
            ],
            [
              -1.3687,
              45
            ]
          ]
        ]
      }
    },
    {
      "type": "Feature",
      "properties": {
        "id": "hex-eu-3-2",
        "sat_id": "EU-4C",
        "machine_no": "Western Europe",
        "color": "#3b82f6",
        "spot_beam": "Western Europe Beam 3",
        "arfcn": "547"
      },
      "geometry": {
        "type": "Polygon",
        "coordinates": [
          [
            [
              3.447,
              45
            ],
            [
              1.0392,
              46
            ],
            [
              -1.3687,
              45
            ],
            [
              -1.3687,
              43
            ],
            [
              1.0392,
              42
            ],
            [
              3.447,
              43
            ],
            [
              3.447,
              45
            ]
          ]
        ]
      }
    },
    {
      "type": "Feature",
      "properties": {
        "id": "hex-eu-3-3",
        "sat_id": "EU-4D",
        "machine_no": "Western Europe",
        "color": "#3b82f6",
        "spot_beam": "Western Europe Beam 4",
        "arfcn": "554"
      },
      "geometry": {
        "type": "Polygon",
        "coordinates": [
          [
            [
              8.2627,
              45
            ],
            [
              5.8548,
              46
            ],
            [
              3.447,
              45
            ],
            [
              3.447,
              43
            ],
            [
              5.8548,
              42
            ],
            [
              8.2627,
              43
            ],
            [
              8.2627,
              45
            ]
          ]
        ]
      }
    },
    {
      "type": "Feature",
      "properties": {
        "id": "hex-eu-3-4",
        "sat_id": "EU-4E",
        "machine_no": "Central Europe",
        "color": "#10b981",
        "spot_beam": "Central Europe Beam 1",
        "arfcn": "561"
      },
      "geometry": {
        "type": "Polygon",
        "coordinates": [
          [
            [
              13.0783,
              45
            ],
            [
              10.6705,
              46
            ],
            [
              8.2627,
              45
            ],
            [
              8.2627,
              43
            ],
            [
              10.6705,
              42
            ],
            [
              13.0783,
              43
            ],
            [
              13.0783,
              45
            ]
          ]
        ]
      }
    },
    {
      "type": "Feature",
      "properties": {
        "id": "hex-eu-3-5",
        "sat_id": "EU-4F",
        "machine_no": "Central Europe",
        "color": "#10b981",
        "spot_beam": "Central Europe Beam 2",
        "arfcn": "568"
      },
      "geometry": {
        "type": "Polygon",
        "coordinates": [
          [
            [
              17.894,
              45
            ],
            [
              15.4862,
              46
            ],
            [
              13.0783,
              45
            ],
            [
              13.0783,
              43
            ],
            [
              15.4862,
              42
            ],
            [
              17.894,
              43
            ],
            [
              17.894,
              45
            ]
          ]
        ]
      }
    },
    {
      "type": "Feature",
      "properties": {
        "id": "hex-eu-3-6",
        "sat_id": "EU-4G",
        "machine_no": "Eastern Europe",
        "color": "#84cc16",
        "spot_beam": "Eastern Europe Beam 3",
        "arfcn": "575"
      },
      "geometry": {
        "type": "Polygon",
        "coordinates": [
          [
            [
              22.7097,
              45
            ],
            [
              20.3018,
              46
            ],
            [
              17.894,
              45
            ],
            [
              17.894,
              43
            ],
            [
              20.3018,
              42
            ],
            [
              22.7097,
              43
            ],
            [
              22.7097,
              45
            ]
          ]
        ]
      }
    },
    {
      "type": "Feature",
      "properties": {
        "id": "hex-eu-3-7",
        "sat_id": "EU-4H",
        "machine_no": "Eastern Europe",
        "color": "#84cc16",
        "spot_beam": "Eastern Europe Beam 4",
        "arfcn": "582"
      },
      "geometry": {
        "type": "Polygon",
        "coordinates": [
          [
            [
              27.5253,
              45
            ],
            [
              25.1175,
              46
            ],
            [
              22.7097,
              45
            ],
            [
              22.7097,
              43
            ],
            [
              25.1175,
              42
            ],
            [
              27.5253,
              43
            ],
            [
              27.5253,
              45
            ]
          ]
        ]
      }
    },
    {
      "type": "Feature",
      "properties": {
        "id": "hex-eu-3-8",
        "sat_id": "EU-4I",
        "machine_no": "Eastern Europe",
        "color": "#84cc16",
        "spot_beam": "Eastern Europe Beam 1",
        "arfcn": "589"
      },
      "geometry": {
        "type": "Polygon",
        "coordinates": [
          [
            [
              32.341,
              45
            ],
            [
              29.9332,
              46
            ],
            [
              27.5253,
              45
            ],
            [
              27.5253,
              43
            ],
            [
              29.9332,
              42
            ],
            [
              32.341,
              43
            ],
            [
              32.341,
              45
            ]
          ]
        ]
      }
    },
    {
      "type": "Feature",
      "properties": {
        "id": "hex-eu-4-0",
        "sat_id": "EU-5A",
        "machine_no": "Western Europe",
        "color": "#3b82f6",
        "spot_beam": "Western Europe Beam 1",
        "arfcn": "544"
      },
      "geometry": {
        "type": "Polygon",
        "coordinates": [
          [
            [
              -8.4603,
              48
            ],
            [
              -11,
              49
            ],
            [
              -13.5397,
              48
            ],
            [
              -13.5397,
              46
            ],
            [
              -11,
              45
            ],
            [
              -8.4603,
              46
            ],
            [
              -8.4603,
              48
            ]
          ]
        ]
      }
    },
    {
      "type": "Feature",
      "properties": {
        "id": "hex-eu-4-1",
        "sat_id": "EU-5B",
        "machine_no": "Western Europe",
        "color": "#3b82f6",
        "spot_beam": "Western Europe Beam 2",
        "arfcn": "551"
      },
      "geometry": {
        "type": "Polygon",
        "coordinates": [
          [
            [
              -3.381,
              48
            ],
            [
              -5.9207,
              49
            ],
            [
              -8.4603,
              48
            ],
            [
              -8.4603,
              46
            ],
            [
              -5.9207,
              45
            ],
            [
              -3.381,
              46
            ],
            [
              -3.381,
              48
            ]
          ]
        ]
      }
    },
    {
      "type": "Feature",
      "properties": {
        "id": "hex-eu-4-2",
        "sat_id": "EU-5C",
        "machine_no": "Western Europe",
        "color": "#3b82f6",
        "spot_beam": "Western Europe Beam 3",
        "arfcn": "558"
      },
      "geometry": {
        "type": "Polygon",
        "coordinates": [
          [
            [
              1.6984,
              48
            ],
            [
              -0.8413,
              49
            ],
            [
              -3.381,
              48
            ],
            [
              -3.381,
              46
            ],
            [
              -0.8413,
              45
            ],
            [
              1.6984,
              46
            ],
            [
              1.6984,
              48
            ]
          ]
        ]
      }
    },
    {
      "type": "Feature",
      "properties": {
        "id": "hex-eu-4-3",
        "sat_id": "EU-5D",
        "machine_no": "Western Europe",
        "color": "#3b82f6",
        "spot_beam": "Western Europe Beam 4",
        "arfcn": "565"
      },
      "geometry": {
        "type": "Polygon",
        "coordinates": [
          [
            [
              6.7777,
              48
            ],
            [
              4.238,
              49
            ],
            [
              1.6984,
              48
            ],
            [
              1.6984,
              46
            ],
            [
              4.238,
              45
            ],
            [
              6.7777,
              46
            ],
            [
              6.7777,
              48
            ]
          ]
        ]
      }
    },
    {
      "type": "Feature",
      "properties": {
        "id": "hex-eu-4-4",
        "sat_id": "EU-5E",
        "machine_no": "Alpine Zone",
        "color": "#ec4899",
        "spot_beam": "Alpine Zone Beam 1",
        "arfcn": "572"
      },
      "geometry": {
        "type": "Polygon",
        "coordinates": [
          [
            [
              11.857,
              48
            ],
            [
              9.3174,
              49
            ],
            [
              6.7777,
              48
            ],
            [
              6.7777,
              46
            ],
            [
              9.3174,
              45
            ],
            [
              11.857,
              46
            ],
            [
              11.857,
              48
            ]
          ]
        ]
      }
    },
    {
      "type": "Feature",
      "properties": {
        "id": "hex-eu-4-5",
        "sat_id": "EU-5F",
        "machine_no": "Alpine Zone",
        "color": "#ec4899",
        "spot_beam": "Alpine Zone Beam 2",
        "arfcn": "579"
      },
      "geometry": {
        "type": "Polygon",
        "coordinates": [
          [
            [
              16.9364,
              48
            ],
            [
              14.3967,
              49
            ],
            [
              11.857,
              48
            ],
            [
              11.857,
              46
            ],
            [
              14.3967,
              45
            ],
            [
              16.9364,
              46
            ],
            [
              16.9364,
              48
            ]
          ]
        ]
      }
    },
    {
      "type": "Feature",
      "properties": {
        "id": "hex-eu-4-6",
        "sat_id": "EU-5G",
        "machine_no": "Eastern Europe",
        "color": "#84cc16",
        "spot_beam": "Eastern Europe Beam 3",
        "arfcn": "586"
      },
      "geometry": {
        "type": "Polygon",
        "coordinates": [
          [
            [
              22.0157,
              48
            ],
            [
              19.476,
              49
            ],
            [
              16.9364,
              48
            ],
            [
              16.9364,
              46
            ],
            [
              19.476,
              45
            ],
            [
              22.0157,
              46
            ],
            [
              22.0157,
              48
            ]
          ]
        ]
      }
    },
    {
      "type": "Feature",
      "properties": {
        "id": "hex-eu-4-7",
        "sat_id": "EU-5H",
        "machine_no": "Eastern Europe",
        "color": "#84cc16",
        "spot_beam": "Eastern Europe Beam 4",
        "arfcn": "593"
      },
      "geometry": {
        "type": "Polygon",
        "coordinates": [
          [
            [
              27.0951,
              48
            ],
            [
              24.5554,
              49
            ],
            [
              22.0157,
              48
            ],
            [
              22.0157,
              46
            ],
            [
              24.5554,
              45
            ],
            [
              27.0951,
              46
            ],
            [
              27.0951,
              48
            ]
          ]
        ]
      }
    },
    {
      "type": "Feature",
      "properties": {
        "id": "hex-eu-4-8",
        "sat_id": "EU-5I",
        "machine_no": "Eastern Europe",
        "color": "#84cc16",
        "spot_beam": "Eastern Europe Beam 1",
        "arfcn": "600"
      },
      "geometry": {
        "type": "Polygon",
        "coordinates": [
          [
            [
              32.1744,
              48
            ],
            [
              29.6347,
              49
            ],
            [
              27.0951,
              48
            ],
            [
              27.0951,
              46
            ],
            [
              29.6347,
              45
            ],
            [
              32.1744,
              46
            ],
            [
              32.1744,
              48
            ]
          ]
        ]
      }
    },
    {
      "type": "Feature",
      "properties": {
        "id": "hex-eu-5-0",
        "sat_id": "EU-6A",
        "machine_no": "British Isles",
        "color": "#06b6d4",
        "spot_beam": "British Isles Beam 1",
        "arfcn": "555"
      },
      "geometry": {
        "type": "Polygon",
        "coordinates": [
          [
            [
              -5.6108,
              51
            ],
            [
              -8.3054,
              52
            ],
            [
              -11,
              51
            ],
            [
              -11,
              49
            ],
            [
              -8.3054,
              48
            ],
            [
              -5.6108,
              49
            ],
            [
              -5.6108,
              51
            ]
          ]
        ]
      }
    },
    {
      "type": "Feature",
      "properties": {
        "id": "hex-eu-5-1",
        "sat_id": "EU-6B",
        "machine_no": "British Isles",
        "color": "#06b6d4",
        "spot_beam": "British Isles Beam 2",
        "arfcn": "562"
      },
      "geometry": {
        "type": "Polygon",
        "coordinates": [
          [
            [
              -0.2216,
              51
            ],
            [
              -2.9162,
              52
            ],
            [
              -5.6108,
              51
            ],
            [
              -5.6108,
              49
            ],
            [
              -2.9162,
              48
            ],
            [
              -0.2216,
              49
            ],
            [
              -0.2216,
              51
            ]
          ]
        ]
      }
    },
    {
      "type": "Feature",
      "properties": {
        "id": "hex-eu-5-2",
        "sat_id": "EU-6C",
        "machine_no": "Central Europe",
        "color": "#10b981",
        "spot_beam": "Central Europe Beam 3",
        "arfcn": "569"
      },
      "geometry": {
        "type": "Polygon",
        "coordinates": [
          [
            [
              5.1676,
              51
            ],
            [
              2.473,
              52
            ],
            [
              -0.2216,
              51
            ],
            [
              -0.2216,
              49
            ],
            [
              2.473,
              48
            ],
            [
              5.1676,
              49
            ],
            [
              5.1676,
              51
            ]
          ]
        ]
      }
    },
    {
      "type": "Feature",
      "properties": {
        "id": "hex-eu-5-3",
        "sat_id": "EU-6D",
        "machine_no": "Central Europe",
        "color": "#10b981",
        "spot_beam": "Central Europe Beam 4",
        "arfcn": "576"
      },
      "geometry": {
        "type": "Polygon",
        "coordinates": [
          [
            [
              10.5567,
              51
            ],
            [
              7.8621,
              52
            ],
            [
              5.1676,
              51
            ],
            [
              5.1676,
              49
            ],
            [
              7.8621,
              48
            ],
            [
              10.5567,
              49
            ],
            [
              10.5567,
              51
            ]
          ]
        ]
      }
    },
    {
      "type": "Feature",
      "properties": {
        "id": "hex-eu-5-4",
        "sat_id": "EU-6E",
        "machine_no": "Central Europe",
        "color": "#10b981",
        "spot_beam": "Central Europe Beam 1",
        "arfcn": "583"
      },
      "geometry": {
        "type": "Polygon",
        "coordinates": [
          [
            [
              15.9459,
              51
            ],
            [
              13.2513,
              52
            ],
            [
              10.5567,
              51
            ],
            [
              10.5567,
              49
            ],
            [
              13.2513,
              48
            ],
            [
              15.9459,
              49
            ],
            [
              15.9459,
              51
            ]
          ]
        ]
      }
    },
    {
      "type": "Feature",
      "properties": {
        "id": "hex-eu-5-5",
        "sat_id": "EU-6F",
        "machine_no": "Eastern Europe",
        "color": "#84cc16",
        "spot_beam": "Eastern Europe Beam 2",
        "arfcn": "590"
      },
      "geometry": {
        "type": "Polygon",
        "coordinates": [
          [
            [
              21.3351,
              51
            ],
            [
              18.6405,
              52
            ],
            [
              15.9459,
              51
            ],
            [
              15.9459,
              49
            ],
            [
              18.6405,
              48
            ],
            [
              21.3351,
              49
            ],
            [
              21.3351,
              51
            ]
          ]
        ]
      }
    },
    {
      "type": "Feature",
      "properties": {
        "id": "hex-eu-5-6",
        "sat_id": "EU-6G",
        "machine_no": "Eastern Europe",
        "color": "#84cc16",
        "spot_beam": "Eastern Europe Beam 3",
        "arfcn": "597"
      },
      "geometry": {
        "type": "Polygon",
        "coordinates": [
          [
            [
              26.7243,
              51
            ],
            [
              24.0297,
              52
            ],
            [
              21.3351,
              51
            ],
            [
              21.3351,
              49
            ],
            [
              24.0297,
              48
            ],
            [
              26.7243,
              49
            ],
            [
              26.7243,
              51
            ]
          ]
        ]
      }
    },
    {
      "type": "Feature",
      "properties": {
        "id": "hex-eu-5-7",
        "sat_id": "EU-6H",
        "machine_no": "Eastern Europe",
        "color": "#84cc16",
        "spot_beam": "Eastern Europe Beam 4",
        "arfcn": "604"
      },
      "geometry": {
        "type": "Polygon",
        "coordinates": [
          [
            [
              32.1135,
              51
            ],
            [
              29.4189,
              52
            ],
            [
              26.7243,
              51
            ],
            [
              26.7243,
              49
            ],
            [
              29.4189,
              48
            ],
            [
              32.1135,
              49
            ],
            [
              32.1135,
              51
            ]
          ]
        ]
      }
    },
    {
      "type": "Feature",
      "properties": {
        "id": "hex-eu-6-0",
        "sat_id": "EU-7A",
        "machine_no": "British Isles",
        "color": "#06b6d4",
        "spot_beam": "British Isles Beam 1",
        "arfcn": "566"
      },
      "geometry": {
        "type": "Polygon",
        "coordinates": [
          [
            [
              -8.122,
              54
            ],
            [
              -11,
              55
            ],
            [
              -13.878,
              54
            ],
            [
              -13.878,
              52
            ],
            [
              -11,
              51
            ],
            [
              -8.122,
              52
            ],
            [
              -8.122,
              54
            ]
          ]
        ]
      }
    },
    {
      "type": "Feature",
      "properties": {
        "id": "hex-eu-6-1",
        "sat_id": "EU-7B",
        "machine_no": "British Isles",
        "color": "#06b6d4",
        "spot_beam": "British Isles Beam 2",
        "arfcn": "573"
      },
      "geometry": {
        "type": "Polygon",
        "coordinates": [
          [
            [
              -2.3659,
              54
            ],
            [
              -5.2439,
              55
            ],
            [
              -8.122,
              54
            ],
            [
              -8.122,
              52
            ],
            [
              -5.2439,
              51
            ],
            [
              -2.3659,
              52
            ],
            [
              -2.3659,
              54
            ]
          ]
        ]
      }
    },
    {
      "type": "Feature",
      "properties": {
        "id": "hex-eu-6-2",
        "sat_id": "EU-7C",
        "machine_no": "British Isles",
        "color": "#06b6d4",
        "spot_beam": "British Isles Beam 3",
        "arfcn": "580"
      },
      "geometry": {
        "type": "Polygon",
        "coordinates": [
          [
            [
              3.3902,
              54
            ],
            [
              0.5122,
              55
            ],
            [
              -2.3659,
              54
            ],
            [
              -2.3659,
              52
            ],
            [
              0.5122,
              51
            ],
            [
              3.3902,
              52
            ],
            [
              3.3902,
              54
            ]
          ]
        ]
      }
    },
    {
      "type": "Feature",
      "properties": {
        "id": "hex-eu-6-3",
        "sat_id": "EU-7D",
        "machine_no": "Central Europe",
        "color": "#10b981",
        "spot_beam": "Central Europe Beam 4",
        "arfcn": "587"
      },
      "geometry": {
        "type": "Polygon",
        "coordinates": [
          [
            [
              9.1463,
              54
            ],
            [
              6.2683,
              55
            ],
            [
              3.3902,
              54
            ],
            [
              3.3902,
              52
            ],
            [
              6.2683,
              51
            ],
            [
              9.1463,
              52
            ],
            [
              9.1463,
              54
            ]
          ]
        ]
      }
    },
    {
      "type": "Feature",
      "properties": {
        "id": "hex-eu-6-4",
        "sat_id": "EU-7E",
        "machine_no": "Central Europe",
        "color": "#10b981",
        "spot_beam": "Central Europe Beam 1",
        "arfcn": "594"
      },
      "geometry": {
        "type": "Polygon",
        "coordinates": [
          [
            [
              14.9024,
              54
            ],
            [
              12.0244,
              55
            ],
            [
              9.1463,
              54
            ],
            [
              9.1463,
              52
            ],
            [
              12.0244,
              51
            ],
            [
              14.9024,
              52
            ],
            [
              14.9024,
              54
            ]
          ]
        ]
      }
    },
    {
      "type": "Feature",
      "properties": {
        "id": "hex-eu-6-5",
        "sat_id": "EU-7F",
        "machine_no": "Central Europe",
        "color": "#10b981",
        "spot_beam": "Central Europe Beam 2",
        "arfcn": "601"
      },
      "geometry": {
        "type": "Polygon",
        "coordinates": [
          [
            [
              20.6585,
              54
            ],
            [
              17.7805,
              55
            ],
            [
              14.9024,
              54
            ],
            [
              14.9024,
              52
            ],
            [
              17.7805,
              51
            ],
            [
              20.6585,
              52
            ],
            [
              20.6585,
              54
            ]
          ]
        ]
      }
    },
    {
      "type": "Feature",
      "properties": {
        "id": "hex-eu-6-6",
        "sat_id": "EU-7G",
        "machine_no": "Eastern Europe",
        "color": "#84cc16",
        "spot_beam": "Eastern Europe Beam 3",
        "arfcn": "608"
      },
      "geometry": {
        "type": "Polygon",
        "coordinates": [
          [
            [
              26.4146,
              54
            ],
            [
              23.5365,
              55
            ],
            [
              20.6585,
              54
            ],
            [
              20.6585,
              52
            ],
            [
              23.5365,
              51
            ],
            [
              26.4146,
              52
            ],
            [
              26.4146,
              54
            ]
          ]
        ]
      }
    },
    {
      "type": "Feature",
      "properties": {
        "id": "hex-eu-6-7",
        "sat_id": "EU-7H",
        "machine_no": "Eastern Europe",
        "color": "#84cc16",
        "spot_beam": "Eastern Europe Beam 4",
        "arfcn": "615"
      },
      "geometry": {
        "type": "Polygon",
        "coordinates": [
          [
            [
              32.1707,
              54
            ],
            [
              29.2926,
              55
            ],
            [
              26.4146,
              54
            ],
            [
              26.4146,
              52
            ],
            [
              29.2926,
              51
            ],
            [
              32.1707,
              52
            ],
            [
              32.1707,
              54
            ]
          ]
        ]
      }
    },
    {
      "type": "Feature",
      "properties": {
        "id": "hex-eu-7-0",
        "sat_id": "EU-8A",
        "machine_no": "British Isles",
        "color": "#06b6d4",
        "spot_beam": "British Isles Beam 1",
        "arfcn": "577"
      },
      "geometry": {
        "type": "Polygon",
        "coordinates": [
          [
            [
              -4.8052,
              57
            ],
            [
              -7.9026,
              58
            ],
            [
              -11,
              57
            ],
            [
              -11,
              55
            ],
            [
              -7.9026,
              54
            ],
            [
              -4.8052,
              55
            ],
            [
              -4.8052,
              57
            ]
          ]
        ]
      }
    },
    {
      "type": "Feature",
      "properties": {
        "id": "hex-eu-7-1",
        "sat_id": "EU-8B",
        "machine_no": "British Isles",
        "color": "#06b6d4",
        "spot_beam": "British Isles Beam 2",
        "arfcn": "584"
      },
      "geometry": {
        "type": "Polygon",
        "coordinates": [
          [
            [
              1.3896,
              57
            ],
            [
              -1.7078,
              58
            ],
            [
              -4.8052,
              57
            ],
            [
              -4.8052,
              55
            ],
            [
              -1.7078,
              54
            ],
            [
              1.3896,
              55
            ],
            [
              1.3896,
              57
            ]
          ]
        ]
      }
    },
    {
      "type": "Feature",
      "properties": {
        "id": "hex-eu-7-2",
        "sat_id": "EU-8C",
        "machine_no": "Central Europe",
        "color": "#10b981",
        "spot_beam": "Central Europe Beam 3",
        "arfcn": "591"
      },
      "geometry": {
        "type": "Polygon",
        "coordinates": [
          [
            [
              7.5845,
              57
            ],
            [
              4.4871,
              58
            ],
            [
              1.3896,
              57
            ],
            [
              1.3896,
              55
            ],
            [
              4.4871,
              54
            ],
            [
              7.5845,
              55
            ],
            [
              7.5845,
              57
            ]
          ]
        ]
      }
    },
    {
      "type": "Feature",
      "properties": {
        "id": "hex-eu-7-3",
        "sat_id": "EU-8D",
        "machine_no": "Central Europe",
        "color": "#10b981",
        "spot_beam": "Central Europe Beam 4",
        "arfcn": "598"
      },
      "geometry": {
        "type": "Polygon",
        "coordinates": [
          [
            [
              13.7793,
              57
            ],
            [
              10.6819,
              58
            ],
            [
              7.5845,
              57
            ],
            [
              7.5845,
              55
            ],
            [
              10.6819,
              54
            ],
            [
              13.7793,
              55
            ],
            [
              13.7793,
              57
            ]
          ]
        ]
      }
    },
    {
      "type": "Feature",
      "properties": {
        "id": "hex-eu-7-4",
        "sat_id": "EU-8E",
        "machine_no": "Central Europe",
        "color": "#10b981",
        "spot_beam": "Central Europe Beam 1",
        "arfcn": "605"
      },
      "geometry": {
        "type": "Polygon",
        "coordinates": [
          [
            [
              19.9741,
              57
            ],
            [
              16.8767,
              58
            ],
            [
              13.7793,
              57
            ],
            [
              13.7793,
              55
            ],
            [
              16.8767,
              54
            ],
            [
              19.9741,
              55
            ],
            [
              19.9741,
              57
            ]
          ]
        ]
      }
    },
    {
      "type": "Feature",
      "properties": {
        "id": "hex-eu-7-5",
        "sat_id": "EU-8F",
        "machine_no": "Baltic Zone",
        "color": "#eab308",
        "spot_beam": "Baltic Zone Beam 2",
        "arfcn": "612"
      },
      "geometry": {
        "type": "Polygon",
        "coordinates": [
          [
            [
              26.1689,
              57
            ],
            [
              23.0715,
              58
            ],
            [
              19.9741,
              57
            ],
            [
              19.9741,
              55
            ],
            [
              23.0715,
              54
            ],
            [
              26.1689,
              55
            ],
            [
              26.1689,
              57
            ]
          ]
        ]
      }
    },
    {
      "type": "Feature",
      "properties": {
        "id": "hex-eu-7-6",
        "sat_id": "EU-8G",
        "machine_no": "Baltic Zone",
        "color": "#eab308",
        "spot_beam": "Baltic Zone Beam 3",
        "arfcn": "619"
      },
      "geometry": {
        "type": "Polygon",
        "coordinates": [
          [
            [
              32.3638,
              57
            ],
            [
              29.2664,
              58
            ],
            [
              26.1689,
              57
            ],
            [
              26.1689,
              55
            ],
            [
              29.2664,
              54
            ],
            [
              32.3638,
              55
            ],
            [
              32.3638,
              57
            ]
          ]
        ]
      }
    },
    {
      "type": "Feature",
      "properties": {
        "id": "hex-eu-8-0",
        "sat_id": "EU-9A",
        "machine_no": "Nordic Zone",
        "color": "#f59e0b",
        "spot_beam": "Nordic Zone Beam 1",
        "arfcn": "588"
      },
      "geometry": {
        "type": "Polygon",
        "coordinates": [
          [
            [
              -7.637,
              60
            ],
            [
              -11,
              61
            ],
            [
              -14.363,
              60
            ],
            [
              -14.363,
              58
            ],
            [
              -11,
              57
            ],
            [
              -7.637,
              58
            ],
            [
              -7.637,
              60
            ]
          ]
        ]
      }
    },
    {
      "type": "Feature",
      "properties": {
        "id": "hex-eu-8-1",
        "sat_id": "EU-9B",
        "machine_no": "Nordic Zone",
        "color": "#f59e0b",
        "spot_beam": "Nordic Zone Beam 2",
        "arfcn": "595"
      },
      "geometry": {
        "type": "Polygon",
        "coordinates": [
          [
            [
              -0.9111,
              60
            ],
            [
              -4.2741,
              61
            ],
            [
              -7.637,
              60
            ],
            [
              -7.637,
              58
            ],
            [
              -4.2741,
              57
            ],
            [
              -0.9111,
              58
            ],
            [
              -0.9111,
              60
            ]
          ]
        ]
      }
    },
    {
      "type": "Feature",
      "properties": {
        "id": "hex-eu-8-2",
        "sat_id": "EU-9C",
        "machine_no": "Nordic Zone",
        "color": "#f59e0b",
        "spot_beam": "Nordic Zone Beam 3",
        "arfcn": "602"
      },
      "geometry": {
        "type": "Polygon",
        "coordinates": [
          [
            [
              5.8148,
              60
            ],
            [
              2.4518,
              61
            ],
            [
              -0.9111,
              60
            ],
            [
              -0.9111,
              58
            ],
            [
              2.4518,
              57
            ],
            [
              5.8148,
              58
            ],
            [
              5.8148,
              60
            ]
          ]
        ]
      }
    },
    {
      "type": "Feature",
      "properties": {
        "id": "hex-eu-8-3",
        "sat_id": "EU-9D",
        "machine_no": "Nordic Zone",
        "color": "#f59e0b",
        "spot_beam": "Nordic Zone Beam 4",
        "arfcn": "609"
      },
      "geometry": {
        "type": "Polygon",
        "coordinates": [
          [
            [
              12.5407,
              60
            ],
            [
              9.1777,
              61
            ],
            [
              5.8148,
              60
            ],
            [
              5.8148,
              58
            ],
            [
              9.1777,
              57
            ],
            [
              12.5407,
              58
            ],
            [
              12.5407,
              60
            ]
          ]
        ]
      }
    },
    {
      "type": "Feature",
      "properties": {
        "id": "hex-eu-8-4",
        "sat_id": "EU-9E",
        "machine_no": "Nordic Zone",
        "color": "#f59e0b",
        "spot_beam": "Nordic Zone Beam 1",
        "arfcn": "616"
      },
      "geometry": {
        "type": "Polygon",
        "coordinates": [
          [
            [
              19.2666,
              60
            ],
            [
              15.9037,
              61
            ],
            [
              12.5407,
              60
            ],
            [
              12.5407,
              58
            ],
            [
              15.9037,
              57
            ],
            [
              19.2666,
              58
            ],
            [
              19.2666,
              60
            ]
          ]
        ]
      }
    },
    {
      "type": "Feature",
      "properties": {
        "id": "hex-eu-8-5",
        "sat_id": "EU-9F",
        "machine_no": "Nordic Zone",
        "color": "#f59e0b",
        "spot_beam": "Nordic Zone Beam 2",
        "arfcn": "623"
      },
      "geometry": {
        "type": "Polygon",
        "coordinates": [
          [
            [
              25.9925,
              60
            ],
            [
              22.6296,
              61
            ],
            [
              19.2666,
              60
            ],
            [
              19.2666,
              58
            ],
            [
              22.6296,
              57
            ],
            [
              25.9925,
              58
            ],
            [
              25.9925,
              60
            ]
          ]
        ]
      }
    },
    {
      "type": "Feature",
      "properties": {
        "id": "hex-eu-8-6",
        "sat_id": "EU-9G",
        "machine_no": "Nordic Zone",
        "color": "#f59e0b",
        "spot_beam": "Nordic Zone Beam 3",
        "arfcn": "630"
      },
      "geometry": {
        "type": "Polygon",
        "coordinates": [
          [
            [
              32.7184,
              60
            ],
            [
              29.3555,
              61
            ],
            [
              25.9925,
              60
            ],
            [
              25.9925,
              58
            ],
            [
              29.3555,
              57
            ],
            [
              32.7184,
              58
            ],
            [
              32.7184,
              60
            ]
          ]
        ]
      }
    },
    {
      "type": "Feature",
      "properties": {
        "id": "hex-eu-9-0",
        "sat_id": "EU-10A",
        "machine_no": "Nordic Zone",
        "color": "#f59e0b",
        "spot_beam": "Nordic Zone Beam 1",
        "arfcn": "599"
      },
      "geometry": {
        "type": "Polygon",
        "coordinates": [
          [
            [
              -3.6213,
              63
            ],
            [
              -7.3106,
              64
            ],
            [
              -11,
              63
            ],
            [
              -11,
              61
            ],
            [
              -7.3106,
              60
            ],
            [
              -3.6213,
              61
            ],
            [
              -3.6213,
              63
            ]
          ]
        ]
      }
    },
    {
      "type": "Feature",
      "properties": {
        "id": "hex-eu-9-1",
        "sat_id": "EU-10B",
        "machine_no": "Nordic Zone",
        "color": "#f59e0b",
        "spot_beam": "Nordic Zone Beam 2",
        "arfcn": "606"
      },
      "geometry": {
        "type": "Polygon",
        "coordinates": [
          [
            [
              3.7575,
              63
            ],
            [
              0.0681,
              64
            ],
            [
              -3.6213,
              63
            ],
            [
              -3.6213,
              61
            ],
            [
              0.0681,
              60
            ],
            [
              3.7575,
              61
            ],
            [
              3.7575,
              63
            ]
          ]
        ]
      }
    },
    {
      "type": "Feature",
      "properties": {
        "id": "hex-eu-9-2",
        "sat_id": "EU-10C",
        "machine_no": "Nordic Zone",
        "color": "#f59e0b",
        "spot_beam": "Nordic Zone Beam 3",
        "arfcn": "613"
      },
      "geometry": {
        "type": "Polygon",
        "coordinates": [
          [
            [
              11.1362,
              63
            ],
            [
              7.4468,
              64
            ],
            [
              3.7575,
              63
            ],
            [
              3.7575,
              61
            ],
            [
              7.4468,
              60
            ],
            [
              11.1362,
              61
            ],
            [
              11.1362,
              63
            ]
          ]
        ]
      }
    },
    {
      "type": "Feature",
      "properties": {
        "id": "hex-eu-9-3",
        "sat_id": "EU-10D",
        "machine_no": "Nordic Zone",
        "color": "#f59e0b",
        "spot_beam": "Nordic Zone Beam 4",
        "arfcn": "620"
      },
      "geometry": {
        "type": "Polygon",
        "coordinates": [
          [
            [
              18.5149,
              63
            ],
            [
              14.8255,
              64
            ],
            [
              11.1362,
              63
            ],
            [
              11.1362,
              61
            ],
            [
              14.8255,
              60
            ],
            [
              18.5149,
              61
            ],
            [
              18.5149,
              63
            ]
          ]
        ]
      }
    },
    {
      "type": "Feature",
      "properties": {
        "id": "hex-eu-9-4",
        "sat_id": "EU-10E",
        "machine_no": "Nordic Zone",
        "color": "#f59e0b",
        "spot_beam": "Nordic Zone Beam 1",
        "arfcn": "627"
      },
      "geometry": {
        "type": "Polygon",
        "coordinates": [
          [
            [
              25.8936,
              63
            ],
            [
              22.2043,
              64
            ],
            [
              18.5149,
              63
            ],
            [
              18.5149,
              61
            ],
            [
              22.2043,
              60
            ],
            [
              25.8936,
              61
            ],
            [
              25.8936,
              63
            ]
          ]
        ]
      }
    },
    {
      "type": "Feature",
      "properties": {
        "id": "hex-eu-9-5",
        "sat_id": "EU-10F",
        "machine_no": "Nordic Zone",
        "color": "#f59e0b",
        "spot_beam": "Nordic Zone Beam 2",
        "arfcn": "634"
      },
      "geometry": {
        "type": "Polygon",
        "coordinates": [
          [
            [
              33.2724,
              63
            ],
            [
              29.583,
              64
            ],
            [
              25.8936,
              63
            ],
            [
              25.8936,
              61
            ],
            [
              29.583,
              60
            ],
            [
              33.2724,
              61
            ],
            [
              33.2724,
              63
            ]
          ]
        ]
      }
    },
    {
      "type": "Feature",
      "properties": {
        "id": "hex-eu-10-0",
        "sat_id": "EU-11A",
        "machine_no": "Nordic Zone",
        "color": "#f59e0b",
        "spot_beam": "Nordic Zone Beam 1",
        "arfcn": "610"
      },
      "geometry": {
        "type": "Polygon",
        "coordinates": [
          [
            [
              -6.9016,
              66
            ],
            [
              -11,
              67
            ],
            [
              -15.0984,
              66
            ],
            [
              -15.0984,
              64
            ],
            [
              -11,
              63
            ],
            [
              -6.9016,
              64
            ],
            [
              -6.9016,
              66
            ]
          ]
        ]
      }
    },
    {
      "type": "Feature",
      "properties": {
        "id": "hex-eu-10-1",
        "sat_id": "EU-11B",
        "machine_no": "Nordic Zone",
        "color": "#f59e0b",
        "spot_beam": "Nordic Zone Beam 2",
        "arfcn": "617"
      },
      "geometry": {
        "type": "Polygon",
        "coordinates": [
          [
            [
              1.2951,
              66
            ],
            [
              -2.8032,
              67
            ],
            [
              -6.9016,
              66
            ],
            [
              -6.9016,
              64
            ],
            [
              -2.8032,
              63
            ],
            [
              1.2951,
              64
            ],
            [
              1.2951,
              66
            ]
          ]
        ]
      }
    },
    {
      "type": "Feature",
      "properties": {
        "id": "hex-eu-10-2",
        "sat_id": "EU-11C",
        "machine_no": "Nordic Zone",
        "color": "#f59e0b",
        "spot_beam": "Nordic Zone Beam 3",
        "arfcn": "624"
      },
      "geometry": {
        "type": "Polygon",
        "coordinates": [
          [
            [
              9.4919,
              66
            ],
            [
              5.3935,
              67
            ],
            [
              1.2951,
              66
            ],
            [
              1.2951,
              64
            ],
            [
              5.3935,
              63
            ],
            [
              9.4919,
              64
            ],
            [
              9.4919,
              66
            ]
          ]
        ]
      }
    },
    {
      "type": "Feature",
      "properties": {
        "id": "hex-eu-10-3",
        "sat_id": "EU-11D",
        "machine_no": "Nordic Zone",
        "color": "#f59e0b",
        "spot_beam": "Nordic Zone Beam 4",
        "arfcn": "631"
      },
      "geometry": {
        "type": "Polygon",
        "coordinates": [
          [
            [
              17.6887,
              66
            ],
            [
              13.5903,
              67
            ],
            [
              9.4919,
              66
            ],
            [
              9.4919,
              64
            ],
            [
              13.5903,
              63
            ],
            [
              17.6887,
              64
            ],
            [
              17.6887,
              66
            ]
          ]
        ]
      }
    },
    {
      "type": "Feature",
      "properties": {
        "id": "hex-eu-10-4",
        "sat_id": "EU-11E",
        "machine_no": "Nordic Zone",
        "color": "#f59e0b",
        "spot_beam": "Nordic Zone Beam 1",
        "arfcn": "638"
      },
      "geometry": {
        "type": "Polygon",
        "coordinates": [
          [
            [
              25.8854,
              66
            ],
            [
              21.7871,
              67
            ],
            [
              17.6887,
              66
            ],
            [
              17.6887,
              64
            ],
            [
              21.7871,
              63
            ],
            [
              25.8854,
              64
            ],
            [
              25.8854,
              66
            ]
          ]
        ]
      }
    },
    {
      "type": "Feature",
      "properties": {
        "id": "hex-eu-10-5",
        "sat_id": "EU-11F",
        "machine_no": "Nordic Zone",
        "color": "#f59e0b",
        "spot_beam": "Nordic Zone Beam 2",
        "arfcn": "645"
      },
      "geometry": {
        "type": "Polygon",
        "coordinates": [
          [
            [
              34.0822,
              66
            ],
            [
              29.9838,
              67
            ],
            [
              25.8854,
              66
            ],
            [
              25.8854,
              64
            ],
            [
              29.9838,
              63
            ],
            [
              34.0822,
              64
            ],
            [
              34.0822,
              66
            ]
          ]
        ]
      }
    },
    {
      "type": "Feature",
      "properties": {
        "id": "hex-eu-11-0",
        "sat_id": "EU-12A",
        "machine_no": "Nordic Zone",
        "color": "#f59e0b",
        "spot_beam": "Nordic Zone Beam 1",
        "arfcn": "621"
      },
      "geometry": {
        "type": "Polygon",
        "coordinates": [
          [
            [
              -1.7527,
              69
            ],
            [
              -6.3763,
              70
            ],
            [
              -11,
              69
            ],
            [
              -11,
              67
            ],
            [
              -6.3763,
              66
            ],
            [
              -1.7527,
              67
            ],
            [
              -1.7527,
              69
            ]
          ]
        ]
      }
    },
    {
      "type": "Feature",
      "properties": {
        "id": "hex-eu-11-1",
        "sat_id": "EU-12B",
        "machine_no": "Nordic Zone",
        "color": "#f59e0b",
        "spot_beam": "Nordic Zone Beam 2",
        "arfcn": "628"
      },
      "geometry": {
        "type": "Polygon",
        "coordinates": [
          [
            [
              7.4946,
              69
            ],
            [
              2.871,
              70
            ],
            [
              -1.7527,
              69
            ],
            [
              -1.7527,
              67
            ],
            [
              2.871,
              66
            ],
            [
              7.4946,
              67
            ],
            [
              7.4946,
              69
            ]
          ]
        ]
      }
    },
    {
      "type": "Feature",
      "properties": {
        "id": "hex-eu-11-2",
        "sat_id": "EU-12C",
        "machine_no": "Nordic Zone",
        "color": "#f59e0b",
        "spot_beam": "Nordic Zone Beam 3",
        "arfcn": "635"
      },
      "geometry": {
        "type": "Polygon",
        "coordinates": [
          [
            [
              16.7419,
              69
            ],
            [
              12.1183,
              70
            ],
            [
              7.4946,
              69
            ],
            [
              7.4946,
              67
            ],
            [
              12.1183,
              66
            ],
            [
              16.7419,
              67
            ],
            [
              16.7419,
              69
            ]
          ]
        ]
      }
    },
    {
      "type": "Feature",
      "properties": {
        "id": "hex-eu-11-3",
        "sat_id": "EU-12D",
        "machine_no": "Nordic Zone",
        "color": "#f59e0b",
        "spot_beam": "Nordic Zone Beam 4",
        "arfcn": "642"
      },
      "geometry": {
        "type": "Polygon",
        "coordinates": [
          [
            [
              25.9892,
              69
            ],
            [
              21.3656,
              70
            ],
            [
              16.7419,
              69
            ],
            [
              16.7419,
              67
            ],
            [
              21.3656,
              66
            ],
            [
              25.9892,
              67
            ],
            [
              25.9892,
              69
            ]
          ]
        ]
      }
    },
    {
      "type": "Feature",
      "properties": {
        "id": "hex-eu-11-4",
        "sat_id": "EU-12E",
        "machine_no": "Nordic Zone",
        "color": "#f59e0b",
        "spot_beam": "Nordic Zone Beam 1",
        "arfcn": "649"
      },
      "geometry": {
        "type": "Polygon",
        "coordinates": [
          [
            [
              35.2365,
              69
            ],
            [
              30.6129,
              70
            ],
            [
              25.9892,
              69
            ],
            [
              25.9892,
              67
            ],
            [
              30.6129,
              66
            ],
            [
              35.2365,
              67
            ],
            [
              35.2365,
              69
            ]
          ]
        ]
      }
    }
  ]
}